ONEWEB-0256             
1 48974U 21060H   24115.16166773  .00000078  00000+0  16939-3 0  9996
2 48974  87.9158  24.8475 0001788  74.0445 286.0882 13.16596446137752
ONEWEB-0257             
1 48975U 21060J   24115.27012542  .00000149  00000+0  35613-3 0  9992
2 48975  87.9154  24.7978 0001657  78.4526 281.6791 13.16595502137728
ONEWEB-0258             
1 48976U 21060K   24115.19571188  .00000190  00000+0  46257-3 0  9992
2 48976  87.9154  24.8414 0001875  82.3347 277.7997 13.16594769137719
ONEWEB-0259             
1 48977U 21060L   24115.26537746  .00000147  00000+0  35013-3 0  9993
2 48977  87.9153  24.8125 0001935  88.1853 271.9499 13.16594332137765
ONEWEB-0260             
1 48978U 21060M   24115.25668607  .00000089  00000+0  20033-3 0  9995
2 48978  87.9153  24.8425 0001397  60.3194 299.8076 13.16597120137736
ONEWEB-0261             
1 48979U 21060N   24115.30179137  .00000038  00000+0  65739-4 0  9994
2 48979  87.9156  24.8261 0001346  99.3207 260.8076 13.16595699137815
ONEWEB-0262             
1 48980U 21060P   24114.82680705  .00000124  00000+0  29127-3 0  9996
2 48980  87.9155  24.8859 0001875  96.3486 263.7859 13.16597185136410
ONEWEB-0263             
1 48981U 21060Q   24115.16245977  .00000004  00000+0 -22266-4 0  9999
2 48981  87.9159  24.8343 0001617  95.1399 264.9916 13.16594096137727
